IRIDIUM 33              
1 24946U 97051C   26095.29120394  .00000399  00000+0  13312-3 0  9992
2 24946  86.3921  20.5410 0007126 189.0436 171.0633 14.35118266494639
IRIDIUM 33 DEB          
1 33773U 97051L   26095.20015007  .00001396  00000+0  40628-3 0  9993
2 33773  86.4063  12.4976 0012487 129.7941 230.4362 14.43543309899840
IRIDIUM 33 DEB          
1 33775U 97051N   26095.21235786  .00002279  00000+0  69050-3 0  9995
2 33775  86.3685   1.1058 0013885 139.1898  14.0704 14.41849087897750
IRIDIUM 33 DEB          
1 33776U 97051P   26095.21361510  .00001158  00000+0  37266-3 0  9990
2 33776  86.4071  33.0873 0014127 176.4795 305.5470 14.38455285897139
IRIDIUM 33 DEB          
1 33777U 97051Q   26095.22450069  .00003288  00000+0  73533-3 0  9993
2 33777  86.3818 345.8201 0004995 223.6729 136.4085 14.56478019901859
IRIDIUM 33 DEB          
1 33850U 97051T   26095.16018176  .00001925  00000+0  57409-3 0  9997
2 33850  86.3444 341.4202 0011970 146.9540   5.7896 14.42552400897874
IRIDIUM 33 DEB          
1 33853U 97051W   26094.53436038  .00002624  00000+0  14851-2 0  9991
2 33853  85.9961 300.3408 0206293 250.5020 136.3644 13.99688049869238
IRIDIUM 33 DEB          
1 33860U 97051AD  26095.20045584  .00008118  00000+0  13654-2 0  9990
2 33860  86.3842 336.9504 0007632 326.4802 159.6874 14.69485853903876
IRIDIUM 33 DEB          
1 33862U 97051AF  26095.20123855  .00013970  00000+0  21472-2 0  9999
2 33862  86.4116 347.3956 0051586  36.2826  88.6429 14.72541057904915
IRIDIUM 33 DEB          
1 33866U 97051AK  26095.29032043  .00004185  00000+0  16373-2 0  9992
2 33866  86.3019  44.9518 0112233 155.1079 330.0553 14.25906377884289
IRIDIUM 33 DEB          
1 33870U 97051AP  26095.24904728  .00003361  00000+0  92531-3 0  9996
2 33870  86.3800   9.5817 0020868 159.3409 354.8299 14.46554753897775
IRIDIUM 33 DEB          
1 33881U 97051BA  26094.94912149  .00020062  00000+0  40824-2 0  9994
2 33881  86.3844  57.3891 0055008 146.5350 280.2598 14.59995402891508
IRIDIUM 33 DEB          
1 33884U 97051BD  26095.05328043  .00017609  00000+0  22559-2 0  9992
2 33884  86.3675 318.5427 0009250 283.3394 233.0985 14.81179797905223
IRIDIUM 33 DEB          
1 33886U 97051BF  26095.25817898  .00000708  00000+0  23607-3 0  9995
2 33886  86.3880  19.4309 0012132 230.4682 281.9162 14.36203120896816
IRIDIUM 33 DEB          
1 33887U 97051BG  26095.10522231  .00000498  00000+0  16042-3 0  9995
2 33887  86.3028 314.5659 0004716 213.9435 277.5863 14.37346749897938
IRIDIUM 33 DEB          
1 33953U 97051BN  26095.25695941  .00005969  00000+0  13291-2 0  9994
2 33953  86.3899   4.4671 0018977  75.7914  54.5560 14.56688119899555
