[{"OBJECT_NAME":"IRIDIUM 33","OBJECT_ID":"1997-051C","EPOCH":"2026-04-05T06:59:20.020416","MEAN_MOTION":14.35118266,"ECCENTRICITY":0.00071269,"INCLINATION":86.3921,"RA_OF_ASC_NODE":20.541,"ARG_OF_PERICENTER":189.0436,"MEAN_ANOMALY":171.0633,"EPHEMERIS_TYPE":0,"CLASSIFICATION_TYPE":"U","NORAD_CAT_ID":24946,"ELEMENT_SET_NO":999,"REV_AT_EPOCH":49463,"BSTAR":0.00013312008,"MEAN_MOTION_DOT":3.99e-6,"MEAN_MOTION_DDOT":0},{"OBJECT_NAME":"IRIDIUM 33 DEB","OBJECT_ID":"1997-051L","EPOCH":"2026-04-05T04:48:12.966048","MEAN_MOTION":14.43543309,"ECCENTRICITY":0.00124874,"INCLINATION":86.4063,"RA_OF_ASC_NODE":12.4976,"ARG_OF_PERICENTER":129.7941,"MEAN_ANOMALY":230.4362,"EPHEMERIS_TYPE":0,"CLASSIFICATION_TYPE":"U","NORAD_CAT_ID":33773,"ELEMENT_SET_NO":999,"REV_AT_EPOCH":89984,"BSTAR":0.00040627557,"MEAN_MOTION_DOT":1.396e-5,"MEAN_MOTION_DDOT":0},{"OBJECT_NAME":"IRIDIUM 33 DEB","OBJECT_ID":"1997-051N","EPOCH":"2026-04-05T05:05:47.719104","MEAN_MOTION":14.41849087,"ECCENTRICITY":0.00138858,"INCLINATION":86.3685,"RA_OF_ASC_NODE":1.1058,"ARG_OF_PERICENTER":139.1898,"MEAN_ANOMALY":14.0704,"EPHEMERIS_TYPE":0,"CLASSIFICATION_TYPE":"U","NORAD_CAT_ID":33775,"ELEMENT_SET_NO":999,"REV_AT_EPOCH":89775,"BSTAR":0.00069050084,"MEAN_MOTION_DOT":2.279e-5,"MEAN_MOTION_DDOT":0},{"OBJECT_NAME":"IRIDIUM 33 DEB","OBJECT_ID":"1997-051P","EPOCH":"2026-04-05T05:07:36.344640","MEAN_MOTION":14.38455285,"ECCENTRICITY":0.00141274,"INCLINATION":86.4071,"RA_OF_ASC_NODE":33.0873,"ARG_OF_PERICENTER":176.4795,"MEAN_ANOMALY":305.547,"EPHEMERIS_TYPE":0,"CLASSIFICATION_TYPE":"U","NORAD_CAT_ID":33776,"ELEMENT_SET_NO":999,"REV_AT_EPOCH":89713,"BSTAR":0.0003726599,"MEAN_MOTION_DOT":1.158e-5,"MEAN_MOTION_DDOT":0},{"OBJECT_NAME":"IRIDIUM 33 DEB","OBJECT_ID":"1997-051Q","EPOCH":"2026-04-05T05:23:16.859616","MEAN_MOTION":14.56478019,"ECCENTRICITY":0.00049956,"INCLINATION":86.3818,"RA_OF_ASC_NODE":345.8201,"ARG_OF_PERICENTER":223.6729,"MEAN_ANOMALY":136.4085,"EPHEMERIS_TYPE":0,"CLASSIFICATION_TYPE":"U","NORAD_CAT_ID":33777,"ELEMENT_SET_NO":999,"REV_AT_EPOCH":90185,"BSTAR":0.00073532897,"MEAN_MOTION_DOT":3.288e-5,"MEAN_MOTION_DDOT":0},{"OBJECT_NAME":"IRIDIUM 33 DEB","OBJECT_ID":"1997-051T","EPOCH":"2026-04-05T03:50:39.704064","MEAN_MOTION":14.425524,"ECCENTRICITY":0.00119707,"INCLINATION":86.3444,"RA_OF_ASC_NODE":341.4202,"ARG_OF_PERICENTER":146.954,"MEAN_ANOMALY":5.7896,"EPHEMERIS_TYPE":0,"CLASSIFICATION_TYPE":"U","NORAD_CAT_ID":33850,"ELEMENT_SET_NO":999,"REV_AT_EPOCH":89787,"BSTAR":0.0005740943,"MEAN_MOTION_DOT":1.925e-5,"MEAN_MOTION_DDOT":0},{"OBJECT_NAME":"IRIDIUM 33 DEB","OBJECT_ID":"1997-051W","EPOCH":"2026-04-04T12:49:28.736832","MEAN_MOTION":13.99688049,"ECCENTRICITY":0.02062936,"INCLINATION":85.9961,"RA_OF_ASC_NODE":300.3408,"ARG_OF_PERICENTER":250.502,"MEAN_ANOMALY":136.3644,"EPHEMERIS_TYPE":0,"CLASSIFICATION_TYPE":"U","NORAD_CAT_ID":33853,"ELEMENT_SET_NO":999,"REV_AT_EPOCH":86923,"BSTAR":0.0014851284,"MEAN_MOTION_DOT":2.624e-5,"MEAN_MOTION_DDOT":0},{"OBJECT_NAME":"IRIDIUM 33 DEB","OBJECT_ID":"1997-051AD","EPOCH":"2026-04-05T04:48:39.384576","MEAN_MOTION":14.69485853,"ECCENTRICITY":0.00076323,"INCLINATION":86.3842,"RA_OF_ASC_NODE":336.9504,"ARG_OF_PERICENTER":326.4802,"MEAN_ANOMALY":159.6874,"EPHEMERIS_TYPE":0,"CLASSIFICATION_TYPE":"U","NORAD_CAT_ID":33860,"ELEMENT_SET_NO":999,"REV_AT_EPOCH":90387,"BSTAR":0.0013654094,"MEAN_MOTION_DOT":8.118e-5,"MEAN_MOTION_DDOT":0},{"OBJECT_NAME":"IRIDIUM 33 DEB","OBJECT_ID":"1997-051AF","EPOCH":"2026-04-05T04:49:47.010720","MEAN_MOTION":14.72541057,"ECCENTRICITY":0.00515862,"INCLINATION":86.4116,"RA_OF_ASC_NODE":347.3956,"ARG_OF_PERICENTER":36.2826,"MEAN_ANOMALY":88.6429,"EPHEMERIS_TYPE":0,"CLASSIFICATION_TYPE":"U","NORAD_CAT_ID":33862,"ELEMENT_SET_NO":999,"REV_AT_EPOCH":90491,"BSTAR":0.0021471863,"MEAN_MOTION_DOT":0.0001397,"MEAN_MOTION_DDOT":0},{"OBJECT_NAME":"IRIDIUM 33 DEB","OBJECT_ID":"1997-051AK","EPOCH":"2026-04-05T06:58:03.685152","MEAN_MOTION":14.25906377,"ECCENTRICITY":0.01122332,"INCLINATION":86.3019,"RA_OF_ASC_NODE":44.9518,"ARG_OF_PERICENTER":155.1079,"MEAN_ANOMALY":330.0553,"EPHEMERIS_TYPE":0,"CLASSIFICATION_TYPE":"U","NORAD_CAT_ID":33866,"ELEMENT_SET_NO":999,"REV_AT_EPOCH":88428,"BSTAR":0.0016372931,"MEAN_MOTION_DOT":4.185e-5,"MEAN_MOTION_DDOT":0},{"OBJECT_NAME":"IRIDIUM 33 DEB","OBJECT_ID":"1997-051AP","EPOCH":"2026-04-05T05:58:37.684992","MEAN_MOTION":14.46554753,"ECCENTRICITY":0.00208681,"INCLINATION":86.38,"RA_OF_ASC_NODE":9.5817,"ARG_OF_PERICENTER":159.3409,"MEAN_ANOMALY":354.8299,"EPHEMERIS_TYPE":0,"CLASSIFICATION_TYPE":"U","NORAD_CAT_ID":33870,"ELEMENT_SET_NO":999,"REV_AT_EPOCH":89777,"BSTAR":0.00092531165,"MEAN_MOTION_DOT":3.361e-5,"MEAN_MOTION_DDOT":0},{"OBJECT_NAME":"IRIDIUM 33 DEB","OBJECT_ID":"1997-051BA","EPOCH":"2026-04-04T22:46:44.096736","MEAN_MOTION":14.59995402,"ECCENTRICITY":0.00550086,"INCLINATION":86.3844,"RA_OF_ASC_NODE":57.3891,"ARG_OF_PERICENTER":146.535,"MEAN_ANOMALY":280.2598,"EPHEMERIS_TYPE":0,"CLASSIFICATION_TYPE":"U","NORAD_CAT_ID":33881,"ELEMENT_SET_NO":999,"REV_AT_EPOCH":89150,"BSTAR":0.0040824105,"MEAN_MOTION_DOT":0.00020062,"MEAN_MOTION_DDOT":0},{"OBJECT_NAME":"IRIDIUM 33 DEB","OBJECT_ID":"1997-051BD","EPOCH":"2026-04-05T01:16:43.429152","MEAN_MOTION":14.81179797,"ECCENTRICITY":0.00092504,"INCLINATION":86.3675,"RA_OF_ASC_NODE":318.5427,"ARG_OF_PERICENTER":283.3394,"MEAN_ANOMALY":233.0985,"EPHEMERIS_TYPE":0,"CLASSIFICATION_TYPE":"U","NORAD_CAT_ID":33884,"ELEMENT_SET_NO":999,"REV_AT_EPOCH":90522,"BSTAR":0.0022559498,"MEAN_MOTION_DOT":0.00017609,"MEAN_MOTION_DDOT":0},{"OBJECT_NAME":"IRIDIUM 33 DEB","OBJECT_ID":"1997-051BF","EPOCH":"2026-04-05T06:11:46.663872","MEAN_MOTION":14.3620312,"ECCENTRICITY":0.0012132,"INCLINATION":86.388,"RA_OF_ASC_NODE":19.4309,"ARG_OF_PERICENTER":230.4682,"MEAN_ANOMALY":281.9162,"EPHEMERIS_TYPE":0,"CLASSIFICATION_TYPE":"U","NORAD_CAT_ID":33886,"ELEMENT_SET_NO":999,"REV_AT_EPOCH":89681,"BSTAR":0.00023607201,"MEAN_MOTION_DOT":7.08e-6,"MEAN_MOTION_DDOT":0},{"OBJECT_NAME":"IRIDIUM 33 DEB","OBJECT_ID":"1997-051BG","EPOCH":"2026-04-05T02:31:31.207584","MEAN_MOTION":14.37346749,"ECCENTRICITY":0.00047163,"INCLINATION":86.3028,"RA_OF_ASC_NODE":314.5659,"ARG_OF_PERICENTER":213.9435,"MEAN_ANOMALY":277.5863,"EPHEMERIS_TYPE":0,"CLASSIFICATION_TYPE":"U","NORAD_CAT_ID":33887,"ELEMENT_SET_NO":999,"REV_AT_EPOCH":89793,"BSTAR":0.00016041576,"MEAN_MOTION_DOT":4.98e-6,"MEAN_MOTION_DDOT":0},{"OBJECT_NAME":"IRIDIUM 33 DEB","OBJECT_ID":"1997-051BN","EPOCH":"2026-04-05T06:10:01.293024","MEAN_MOTION":14.56688119,"ECCENTRICITY":0.0018977,"INCLINATION":86.3899,"RA_OF_ASC_NODE":4.4671,"ARG_OF_PERICENTER":75.7914,"MEAN_ANOMALY":54.556,"EPHEMERIS_TYPE":0,"CLASSIFICATION_TYPE":"U","NORAD_CAT_ID":33953,"ELEMENT_SET_NO":999,"REV_AT_EPOCH":89955,"BSTAR":0.0013290899,"MEAN_MOTION_DOT":5.969e-5,"MEAN_MOTION_DDOT":0}]
